CCSDS_OMM_VERS = 2.0
CREATION_DATE  = 
ORIGINATOR     = 

OBJECT_NAME    = XRISM
OBJECT_ID      = 2023-137A
CENTER_NAME    = EARTH
REF_FRAME      = TEME
TIME_SYSTEM    = UTC
MEAN_ELEMENT_THEORY = SGP/SGP4

EPOCH          = 2026-03-31T11:55:47.966880
MEAN_MOTION    = 15.11758652
ECCENTRICITY   = .00079152
INCLINATION    = 31.0015
RA_OF_ASC_NODE = 142.5846
ARG_OF_PERICENTER = 258.4497
MEAN_ANOMALY   = 101.5253

EPHEMERIS_TYPE = 0
CLASSIFICATION_TYPE = U
NORAD_CAT_ID   = 57800
ELEMENT_SET_NO = 999
REV_AT_EPOCH   = 14109
BSTAR          = .42231762E-3
MEAN_MOTION_DOT = .7486E-4
MEAN_MOTION_DDOT = 0

CCSDS_OMM_VERS = 2.0
CREATION_DATE  = 
ORIGINATOR     = 

OBJECT_NAME    = ACS3
OBJECT_ID      = 2024-077B
CENTER_NAME    = EARTH
REF_FRAME      = TEME
TIME_SYSTEM    = UTC
MEAN_ELEMENT_THEORY = SGP/SGP4

EPOCH          = 2026-04-01T02:22:20.803296
MEAN_MOTION    = 13.90692249
ECCENTRICITY   = .0073098
INCLINATION    = 97.1961
RA_OF_ASC_NODE = 27.1742
ARG_OF_PERICENTER = 25.8569
MEAN_ANOMALY   = 334.6220

EPHEMERIS_TYPE = 0
CLASSIFICATION_TYPE = U
NORAD_CAT_ID   = 59588
ELEMENT_SET_NO = 999
REV_AT_EPOCH   = 9731
BSTAR          = .28903E-1
MEAN_MOTION_DOT = .36993E-3
MEAN_MOTION_DDOT = 0

CCSDS_OMM_VERS = 2.0
CREATION_DATE  = 
ORIGINATOR     = 

OBJECT_NAME    = HTV-X1
OBJECT_ID      = 2025-241A
CENTER_NAME    = EARTH
REF_FRAME      = TEME
TIME_SYSTEM    = UTC
MEAN_ELEMENT_THEORY = SGP/SGP4

EPOCH          = 2026-04-01T03:33:39.148128
MEAN_MOTION    = 15.32487490
ECCENTRICITY   = .0007212
INCLINATION    = 51.6375
RA_OF_ASC_NODE = 324.8235
ARG_OF_PERICENTER = 259.7881
MEAN_ANOMALY   = 100.2287

EPHEMERIS_TYPE = 0
CLASSIFICATION_TYPE = U
NORAD_CAT_ID   = 66174
ELEMENT_SET_NO = 999
REV_AT_EPOCH   = 2438
BSTAR          = .42398E-4
MEAN_MOTION_DOT = .978E-5
MEAN_MOTION_DDOT = 0

CCSDS_OMM_VERS = 2.0
CREATION_DATE  = 
ORIGINATOR     = 

OBJECT_NAME    = SZ-21 MODULE
OBJECT_ID      = 2025-246C
CENTER_NAME    = EARTH
REF_FRAME      = TEME
TIME_SYSTEM    = UTC
MEAN_ELEMENT_THEORY = SGP/SGP4

EPOCH          = 2026-04-01T05:13:49.755936
MEAN_MOTION    = 15.70344798
ECCENTRICITY   = .0002466
INCLINATION    = 41.4742
RA_OF_ASC_NODE = 64.4975
ARG_OF_PERICENTER = 219.0521
MEAN_ANOMALY   = 141.0144

EPHEMERIS_TYPE = 0
CLASSIFICATION_TYPE = U
NORAD_CAT_ID   = 66515
ELEMENT_SET_NO = 999
REV_AT_EPOCH   = 2161
BSTAR          = .33315E-3
MEAN_MOTION_DOT = .41753E-3
MEAN_MOTION_DDOT = 0

